{
  "type": "FeatureCollection",
  "features": [
    {
      "type": "Feature",
      "properties": {
        "norad_id": 25590,
        "name": "COSMOS 2361",
        "group": "musson",
        "lat": 4.419477191052857,
        "lon": 154.34793960554376,
        "alt_km": 977.2547726842458,
        "timestamp": "2025-12-25T03:55:56.627563+00:00",
        "meta_object_name": "COSMOS 2361",
        "meta_object_id": "1998-076A",
        "meta_epoch": "2025-12-24T17:25:41.368800",
        "meta_mean_motion": 13.73218789,
        "meta_eccentricity": 0.0030304,
        "meta_inclination": 82.9345,
        "meta_ra_of_asc_node": 335.2207,
        "meta_arg_of_pericenter": 230.9099,
        "meta_mean_anomaly": 302.3283,
        "meta_ephemeris_type": 0,
        "meta_classification_type": "U",
        "meta_norad_cat_id": 25590,
        "meta_element_set_no": 999,
        "meta_rev_at_epoch": 35275,
        "meta_bstar": 4.9576e-05,
        "meta_mean_motion_dot": 6.1e-07,
        "meta_mean_motion_ddot": 0,
        "tle_line1": "1 25590U 98076A   25358.72617325  .00000061  00000+0  49576-4 0  9998",
        "tle_line2": "2 25590  82.9345 335.2207 0030304 230.9099 302.3283 13.73218789352750"
      },
      "geometry": {
        "type": "Point",
        "coordinates": [
          154.34793960554376,
          4.419477191052857
        ]
      }
    },
    {
      "type": "Feature",
      "properties": {
        "norad_id": 26818,
        "name": "COSMOS 2378",
        "group": "musson",
        "lat": -68.90693176788612,
        "lon": -28.26339669217607,
        "alt_km": 1004.1220461797693,
        "timestamp": "2025-12-25T03:55:56.627584+00:00",
        "meta_object_name": "COSMOS 2378",
        "meta_object_id": "2001-023A",
        "meta_epoch": "2025-12-24T18:37:53.800032",
        "meta_mean_motion": 13.74142959,
        "meta_eccentricity": 0.0033157,
        "meta_inclination": 82.9272,
        "meta_ra_of_asc_node": 350.7992,
        "meta_arg_of_pericenter": 171.1572,
        "meta_mean_anomaly": 2.4655,
        "meta_ephemeris_type": 0,
        "meta_classification_type": "U",
        "meta_norad_cat_id": 26818,
        "meta_element_set_no": 999,
        "meta_rev_at_epoch": 23088,
        "meta_bstar": 3.8839e-05,
        "meta_mean_motion_dot": 5.2e-07,
        "meta_mean_motion_ddot": 0,
        "tle_line1": "1 26818U 01023A   25358.77631713  .00000052  00000+0  38839-4 0  9990",
        "tle_line2": "2 26818  82.9272 350.7992 0033157 171.1572   2.4655 13.74142959230883"
      },
      "geometry": {
        "type": "Point",
        "coordinates": [
          -28.26339669217607,
          -68.90693176788612
        ]
      }
    },
    {
      "type": "Feature",
      "properties": {
        "norad_id": 27436,
        "name": "COSMOS 2389",
        "group": "musson",
        "lat": -2.1007866679917493,
        "lon": 118.04792419658357,
        "alt_km": 1015.7318441393145,
        "timestamp": "2025-12-25T03:55:56.627598+00:00",
        "meta_object_name": "COSMOS 2389",
        "meta_object_id": "2002-026A",
        "meta_epoch": "2025-12-24T18:38:34.497888",
        "meta_mean_motion": 13.75155939,
        "meta_eccentricity": 0.0047103,
        "meta_inclination": 82.9513,
        "meta_ra_of_asc_node": 298.0743,
        "meta_arg_of_pericenter": 27.8867,
        "meta_mean_anomaly": 38.7949,
        "meta_ephemeris_type": 0,
        "meta_classification_type": "U",
        "meta_norad_cat_id": 27436,
        "meta_element_set_no": 999,
        "meta_rev_at_epoch": 18314,
        "meta_bstar": 6.9153e-05,
        "meta_mean_motion_dot": 8.2e-07,
        "meta_mean_motion_ddot": 0,
        "tle_line1": "1 27436U 02026A   25358.77678817  .00000082  00000+0  69153-4 0  9993",
        "tle_line2": "2 27436  82.9513 298.0743 0047103  27.8867  38.7949 13.75155939183143"
      },
      "geometry": {
        "type": "Point",
        "coordinates": [
          118.04792419658357,
          -2.1007866679917493
        ]
      }
    },
    {
      "type": "Feature",
      "properties": {
        "norad_id": 27818,
        "name": "COSMOS 2398",
        "group": "musson",
        "lat": 10.225374730761802,
        "lon": -95.1773138454226,
        "alt_km": 983.491663868188,
        "timestamp": "2025-12-25T03:55:56.627610+00:00",
        "meta_object_name": "COSMOS 2398",
        "meta_object_id": "2003-023A",
        "meta_epoch": "2025-12-24T17:39:44.148096",
        "meta_mean_motion": 13.72387046,
        "meta_eccentricity": 0.0032696,
        "meta_inclination": 82.9483,
        "meta_ra_of_asc_node": 263.8586,
        "meta_arg_of_pericenter": 79.8596,
        "meta_mean_anomaly": 337.903,
        "meta_ephemeris_type": 0,
        "meta_classification_type": "U",
        "meta_norad_cat_id": 27818,
        "meta_element_set_no": 999,
        "meta_rev_at_epoch": 12981,
        "meta_bstar": 7.3981e-05,
        "meta_mean_motion_dot": 8.3e-07,
        "meta_mean_motion_ddot": 0,
        "tle_line1": "1 27818U 03023A   25358.73592764  .00000083  00000+0  73981-4 0  9992",
        "tle_line2": "2 27818  82.9483 263.8586 0032696  79.8596 337.9030 13.72387046129817"
      },
      "geometry": {
        "type": "Point",
        "coordinates": [
          -95.1773138454226,
          10.225374730761802
        ]
      }
    },
    {
      "type": "Feature",
      "properties": {
        "norad_id": 28380,
        "name": "COSMOS 2407",
        "group": "musson",
        "lat": 21.671032908465797,
        "lon": -153.49167140869463,
        "alt_km": 947.4799624822381,
        "timestamp": "2025-12-25T03:55:56.627622+00:00",
        "meta_object_name": "COSMOS 2407",
        "meta_object_id": "2004-028A",
        "meta_epoch": "2025-12-24T20:54:03.917952",
        "meta_mean_motion": 13.76314965,
        "meta_eccentricity": 0.0039751,
        "meta_inclination": 82.9594,
        "meta_ra_of_asc_node": 203.9106,
        "meta_arg_of_pericenter": 21.6844,
        "meta_mean_anomaly": 349.4802,
        "meta_ephemeris_type": 0,
        "meta_classification_type": "U",
        "meta_norad_cat_id": 28380,
        "meta_element_set_no": 999,
        "meta_rev_at_epoch": 7590,
        "meta_bstar": 3.5456e-05,
        "meta_mean_motion_dot": 5e-07,
        "meta_mean_motion_ddot": 0,
        "tle_line1": "1 28380U 04028A   25358.87087868  .00000050  00000+0  35456-4 0  9991",
        "tle_line2": "2 28380  82.9594 203.9106 0039751  21.6844 349.4802 13.76314965 75907"
      },
      "geometry": {
        "type": "Point",
        "coordinates": [
          -153.49167140869463,
          21.671032908465797
        ]
      }
    },
    {
      "type": "Feature",
      "properties": {
        "norad_id": 28521,
        "name": "COSMOS 2414",
        "group": "musson",
        "lat": 79.98573682917501,
        "lon": -140.23561837308972,
        "alt_km": 900.5733961262022,
        "timestamp": "2025-12-25T03:55:56.627634+00:00",
        "meta_object_name": "COSMOS 2414",
        "meta_object_id": "2005-002A",
        "meta_epoch": "2025-12-24T13:41:39.116832",
        "meta_mean_motion": 13.87904413,
        "meta_eccentricity": 0.0041408,
        "meta_inclination": 82.9488,
        "meta_ra_of_asc_node": 175.7135,
        "meta_arg_of_pericenter": 106.8747,
        "meta_mean_anomaly": 253.6963,
        "meta_ephemeris_type": 0,
        "meta_classification_type": "U",
        "meta_norad_cat_id": 28521,
        "meta_element_set_no": 999,
        "meta_rev_at_epoch": 5959,
        "meta_bstar": 3.6586e-05,
        "meta_mean_motion_dot": 6e-07,
        "meta_mean_motion_ddot": 0,
        "tle_line1": "1 28521U 05002A   25358.57059163  .00000060  00000+0  36586-4 0  9991",
        "tle_line2": "2 28521  82.9488 175.7135 0041408 106.8747 253.6963 13.87904413 59590"
      },
      "geometry": {
        "type": "Point",
        "coordinates": [
          -140.23561837308972,
          79.98573682917501
        ]
      }
    },
    {
      "type": "Feature",
      "properties": {
        "norad_id": 32052,
        "name": "COSMOS 2429",
        "group": "musson",
        "lat": 7.229565694798237,
        "lon": -24.954897150462056,
        "alt_km": 954.7447317056249,
        "timestamp": "2025-12-25T03:55:56.627644+00:00",
        "meta_object_name": "COSMOS 2429",
        "meta_object_id": "2007-038A",
        "meta_epoch": "2025-12-24T15:40:25.165056",
        "meta_mean_motion": 13.75150551,
        "meta_eccentricity": 0.0038536,
        "meta_inclination": 82.9808,
        "meta_ra_of_asc_node": 334.526,
        "meta_arg_of_pericenter": 5.0637,
        "meta_mean_anomaly": 355.0901,
        "meta_ephemeris_type": 0,
        "meta_classification_type": "U",
        "meta_norad_cat_id": 32052,
        "meta_element_set_no": 999,
        "meta_rev_at_epoch": 91766,
        "meta_bstar": 4.8848e-05,
        "meta_mean_motion_dot": 6.2e-07,
        "meta_mean_motion_ddot": 0,
        "tle_line1": "1 32052U 07038A   25358.65306904  .00000062  00000+0  48848-4 0  9999",
        "tle_line2": "2 32052  82.9808 334.5260 0038536   5.0637 355.0901 13.75150551917663"
      },
      "geometry": {
        "type": "Point",
        "coordinates": [
          -24.954897150462056,
          7.229565694798237
        ]
      }
    },
    {
      "type": "Feature",
      "properties": {
        "norad_id": 35635,
        "name": "COSMOS 2454",
        "group": "musson",
        "lat": -43.40619902508376,
        "lon": -14.057124236446274,
        "alt_km": 950.1147068898526,
        "timestamp": "2025-12-25T03:55:56.627655+00:00",
        "meta_object_name": "COSMOS 2454",
        "meta_object_id": "2009-039A",
        "meta_epoch": "2025-12-24T20:28:45.780960",
        "meta_mean_motion": 13.89930098,
        "meta_eccentricity": 0.002001,
        "meta_inclination": 82.9558,
        "meta_ra_of_asc_node": 159.4622,
        "meta_arg_of_pericenter": 41.0867,
        "meta_mean_anomaly": 69.6716,
        "meta_ephemeris_type": 0,
        "meta_classification_type": "U",
        "meta_norad_cat_id": 35635,
        "meta_element_set_no": 999,
        "meta_rev_at_epoch": 83318,
        "meta_bstar": 4.8619e-05,
        "meta_mean_motion_dot": 7.6e-07,
        "meta_mean_motion_ddot": 0,
        "tle_line1": "1 35635U 09039A   25358.85330765  .00000076  00000+0  48619-4 0  9997",
        "tle_line2": "2 35635  82.9558 159.4622 0020010  41.0867  69.6716 13.89930098833187"
      },
      "geometry": {
        "type": "Point",
        "coordinates": [
          -14.057124236446274,
          -43.40619902508376
        ]
      }
    },
    {
      "type": "Feature",
      "properties": {
        "norad_id": 36519,
        "name": "COSMOS 2463",
        "group": "musson",
        "lat": 12.721486730594675,
        "lon": -164.01628316277865,
        "alt_km": 992.548974297375,
        "timestamp": "2025-12-25T03:55:56.627666+00:00",
        "meta_object_name": "COSMOS 2463",
        "meta_object_id": "2010-017A",
        "meta_epoch": "2025-12-24T19:12:31.795200",
        "meta_mean_motion": 13.71650172,
        "meta_eccentricity": 0.0034801,
        "meta_inclination": 82.9603,
        "meta_ra_of_asc_node": 17.8492,
        "meta_arg_of_pericenter": 253.3433,
        "meta_mean_anomaly": 280.281,
        "meta_ephemeris_type": 0,
        "meta_classification_type": "U",
        "meta_norad_cat_id": 36519,
        "meta_element_set_no": 999,
        "meta_rev_at_epoch": 78402,
        "meta_bstar": 3.1141e-05,
        "meta_mean_motion_dot": 4.3e-07,
        "meta_mean_motion_ddot": 0,
        "tle_line1": "1 36519U 10017A   25358.80036800  .00000043  00000+0  31141-4 0  9991",
        "tle_line2": "2 36519  82.9603  17.8492 0034801 253.3433 280.2810 13.71650172784029"
      },
      "geometry": {
        "type": "Point",
        "coordinates": [
          -164.01628316277865,
          12.721486730594675
        ]
      }
    }
  ]
}